ONEWEB-0651             
1 56080U 23043AL  26159.52590464  .00000112  00000+0  26312-3 0  9999
2 56080  87.9000 260.9462 0002139  95.8396 264.2978 13.15549099156487
ONEWEB-0718             
1 56081U 23043AM  26159.52113469  .00000063  00000+0  13366-3 0  9996
2 56081  87.9001 260.9276 0002214 113.1819 246.9544 13.15550837155296
ONEWEB-0561             
1 56710U 23068A   26159.33413220  .00000108  00000+0  23395-3 0  9992
2 56710  87.9189 276.2077 0001769  82.8281 277.3054 13.20767496148338
ONEWEB-0668             
1 56711U 23068B   26159.23328740  .00000069  00000+0  14798-3 0  9997
2 56711  87.9101 230.5502 0002568 104.5654 255.5762 13.16593852150608
ONEWEB-0676             
1 56712U 23068C   26159.24118742  .00000060  00000+0  12242-3 0  9991
2 56712  87.9103 230.5547 0002183  90.1064 270.0317 13.16596301150529
ONEWEB-0677             
1 56713U 23068D   26159.54960052 -.00000012  00000+0 -62005-4 0  9996
2 56713  87.9191 276.1563 0002312  95.2167 264.9230 13.20770218148669
ONEWEB-0678             
1 56714U 23068E   26159.33734022  .00000151  00000+0  36704-3 0  9998
2 56714  87.9008 260.9557 0001644  98.1451 261.9866 13.15547681148129
ONEWEB-0679             
1 56715U 23068F   26159.42802919  .00000053  00000+0  10381-3 0  9994
2 56715  87.9103 230.5089 0002624  95.8856 264.2574 13.16594604150573
ONEWEB-0680             
1 56716U 23068G   26159.23941433  .00000015  00000+0  39439-5 0  9994
2 56716  87.9266 245.7504 0002599 103.4276 256.7148 13.21828027149911
ONEWEB-0681             
1 56717U 23068H   26159.52285307  .00000000  00000+0 -32327-4 0  9991
2 56717  87.9258 245.6957 0002325  75.0906 285.0485 13.21826941149940
ONEWEB-0682             
1 56718U 23068J   26159.51323084  .00000137  00000+0  33097-3 0  9990
2 56718  87.9009 260.9214 0002491 104.0239 256.1169 13.15549026148314
ONEWEB-0683             
1 56719U 23068K   26159.53699823  .00000019  00000+0  15861-4 0  9999
2 56719  87.9012 260.9162 0002216 105.6701 254.4673 13.15548668148285
ONEWEB-0684             
1 56720U 23068L   26159.31674181 -.00000072  00000+0 -22652-3 0  9993
2 56720  87.9008 260.9504 0000965 138.5639 221.5565 13.15548261148088
ONEWEB-0686             
1 56721U 23068M   26159.23645727  .00000081  00000+0  17788-3 0  9991
2 56721  87.9091 230.5713 0002120 108.4495 251.6866 13.16594599150534
ONEWEB-0694             
1 56722U 23068N   26159.24278831  .00000022  00000+0  23868-4 0  9993
2 56722  87.9111 230.5328 0002518 103.6893 256.4519 13.16594423150590
ONEWEB-0696             
1 56723U 23068P   26158.81760617 -.00000141  00000+0 -40797-3 0  9997
2 56723  87.9001 261.0885 0001522  96.8861 263.2442 13.15553775148130
ONEWEB-0703             
1 56724U 23068Q   26159.51164307  .00000115  00000+0  27230-3 0  9996
2 56724  87.9002 260.9314 0001362  78.0403 282.0880 13.15548468148119
ONEWEB-0721             
1 56725U 23068R   26159.51474692  .00000067  00000+0  12536-3 0  9997
2 56725  86.6767  88.2840 0001937  78.4479 281.6872 13.22469017156793
ONEWEB-0015             
1 61594U 24188A   26159.15385517  .00000497  00000+0  13671-2 0  9995
2 61594  87.8895  22.8912 0002317  78.0468 282.0920 13.11416522 83271
ONEWEB-0687             
1 61595U 24188B   26159.49811468 -.00000064  00000+0 -19696-3 0  9998
2 61595  87.9133   7.6056 0002325  91.0244 269.1154 13.17648232 84754
ONEWEB-0688             
1 61596U 24188C   26159.52680626  .00000051  00000+0  98969-4 0  9998
2 61596  87.9135   7.6001 0002942  72.5398 287.6055 13.17648049 84757
ONEWEB-0689             
1 61597U 24188D   26159.34034419 -.00000496  00000+0 -14351-2 0  9998
2 61597  87.8910  22.8113 0001975  93.4184 266.7170 13.11417952 83296
ONEWEB-0690             
1 61598U 24188E   26159.12162922 -.00000353  00000+0 -10305-2 0  9993
2 61598  87.8903  22.8670 0001475  64.9702 295.1579 13.11419928 83442
ONEWEB-0691             
1 61599U 24188F   26159.11654897 -.00000458  00000+0 -13294-2 0  9996
2 61599  87.8915  22.7763 0002216  82.0805 278.0574 13.11417775 83293
ONEWEB-0692             
1 61600U 24188G   26159.36578549  .00000286  00000+0  77101-3 0  9990
2 61600  87.8893  22.8411 0001533 110.4718 249.6575 13.11419938 83313
ONEWEB-0693             
1 61601U 24188H   26157.33645798  .00000037  00000+0  61299-4 0  9993
2 61601  87.9129   8.0549 0001389  66.5698 293.5579 13.17649651 84453
ONEWEB-0695             
1 61602U 24188J   26159.11314914 -.00000535  00000+0 -15465-2 0  9992
2 61602  87.8898  22.8831 0001844 102.4202 257.7132 13.11416745 83277
ONEWEB-0697             
1 61603U 24188K   26159.37426825  .00000684  00000+0  18939-2 0  9998
2 61603  87.8898  22.8215 0001383 107.9202 252.2077 13.11418234 83297
ONEWEB-0698             
1 61604U 24188L   26159.12331937 -.00000233  00000+0 -69430-3 0  9996
2 61604  87.8893  22.8858 0000633  86.9614 273.1586 13.11419870 83289
ONEWEB-0699             
1 61605U 24188M   26159.35804674  .00000302  00000+0  82747-3 0  9996
2 61605  87.8836  38.0245 0001359 100.4292 259.6988 13.10370078 82151
ONEWEB-0700             
1 61606U 24188N   26159.35970338  .00000276  00000+0  75335-3 0  9993
2 61606  87.8854  37.9318 0001738 105.5262 254.6057 13.10370612 82140
