OBJECT_NAME,OBJECT_ID,EPOCH,MEAN_MOTION,ECCENTRICITY,INCLINATION,RA_OF_ASC_NODE,ARG_OF_PERICENTER,MEAN_ANOMALY,EPHEMERIS_TYPE,CLASSIFICATION_TYPE,NORAD_CAT_ID,ELEMENT_SET_NO,REV_AT_EPOCH,BSTAR,MEAN_MOTION_DOT,MEAN_MOTION_DDOT
ONEWEB-0651,2023-043AL,2026-06-08T12:37:18.160896,13.15549099,.0002139,87.9000,260.9462,95.8396,264.2978,0,U,56080,999,15648,.26312E-3,.112E-5,0
ONEWEB-0718,2023-043AM,2026-06-08T12:30:26.037216,13.15550837,.0002214,87.9001,260.9276,113.1819,246.9544,0,U,56081,999,15529,.13366E-3,.63E-6,0
ONEWEB-0561,2023-068A,2026-06-08T08:01:09.022080,13.20767496,.0001769,87.9189,276.2077,82.8281,277.3054,0,U,56710,999,14833,.23395E-3,.108E-5,0
ONEWEB-0668,2023-068B,2026-06-08T05:35:56.031360,13.16593852,.0002568,87.9101,230.5502,104.5654,255.5762,0,U,56711,999,15060,.14798E-3,.69E-6,0
ONEWEB-0676,2023-068C,2026-06-08T05:47:18.593088,13.16596301,.0002183,87.9103,230.5547,90.1064,270.0317,0,U,56712,999,15052,.12242E-3,.6E-6,0
ONEWEB-0677,2023-068D,2026-06-08T13:11:25.484928,13.20770218,.0002312,87.9191,276.1563,95.2167,264.9230,0,U,56713,999,14866,-.62005E-4,-.12E-6,0
ONEWEB-0678,2023-068E,2026-06-08T08:05:46.195008,13.15547681,.0001644,87.9008,260.9557,98.1451,261.9866,0,U,56714,999,14812,.36704E-3,.151E-5,0
ONEWEB-0679,2023-068F,2026-06-08T10:16:21.722016,13.16594604,.0002624,87.9103,230.5089,95.8856,264.2574,0,U,56715,999,15057,.10381E-3,.53E-6,0
ONEWEB-0680,2023-068G,2026-06-08T05:44:45.398112,13.21828027,.0002599,87.9266,245.7504,103.4276,256.7148,0,U,56716,999,14991,.39439E-5,.15E-6,0
ONEWEB-0681,2023-068H,2026-06-08T12:32:54.505248,13.21826941,.0002325,87.9258,245.6957,75.0906,285.0485,0,U,56717,999,14994,-.32327E-4,0,0
ONEWEB-0682,2023-068J,2026-06-08T12:19:03.144576,13.15549026,.0002491,87.9009,260.9214,104.0239,256.1169,0,U,56718,999,14831,.33097E-3,.137E-5,0
ONEWEB-0683,2023-068K,2026-06-08T12:53:16.647072,13.15548668,.0002216,87.9012,260.9162,105.6701,254.4673,0,U,56719,999,14828,.15861E-4,.19E-6,0
ONEWEB-0684,2023-068L,2026-06-08T07:36:06.492384,13.15548261,.0000965,87.9008,260.9504,138.5639,221.5565,0,U,56720,999,14808,-.22652E-3,-.72E-6,0
ONEWEB-0686,2023-068M,2026-06-08T05:40:29.908128,13.16594599,.000212,87.9091,230.5713,108.4495,251.6866,0,U,56721,999,15053,.17788E-3,.81E-6,0
ONEWEB-0694,2023-068N,2026-06-08T05:49:36.909984,13.16594423,.0002518,87.9111,230.5328,103.6893,256.4519,0,U,56722,999,15059,.23868E-4,.22E-6,0
ONEWEB-0696,2023-068P,2026-06-07T19:37:21.173088,13.15553775,.0001522,87.9001,261.0885,96.8861,263.2442,0,U,56723,999,14813,-.40797E-3,-.141E-5,0
ONEWEB-0703,2023-068Q,2026-06-08T12:16:45.961248,13.15548468,.0001362,87.9002,260.9314,78.0403,282.0880,0,U,56724,999,14811,.2723E-3,.115E-5,0
ONEWEB-0721,2023-068R,2026-06-08T12:21:14.133888,13.22469017,.0001937,86.6767,88.2840,78.4479,281.6872,0,U,56725,999,15679,.12536E-3,.67E-6,0
ONEWEB-0015,2024-188A,2026-06-08T03:41:33.086688,13.11416522,.0002317,87.8895,22.8912,78.0468,282.0920,0,U,61594,999,8327,.13671E-2,.497E-5,0
ONEWEB-0687,2024-188B,2026-06-08T11:57:17.108352,13.17648232,.0002325,87.9133,7.6056,91.0244,269.1154,0,U,61595,999,8475,-.19696E-3,-.64E-6,0
ONEWEB-0688,2024-188C,2026-06-08T12:38:36.060864,13.17648049,.0002942,87.9135,7.6001,72.5398,287.6055,0,U,61596,999,8475,.98969E-4,.51E-6,0
ONEWEB-0689,2024-188D,2026-06-08T08:10:05.738016,13.11417952,.0001975,87.8910,22.8113,93.4184,266.7170,0,U,61597,999,8329,-.14351E-2,-.496E-5,0
ONEWEB-0690,2024-188E,2026-06-08T02:55:08.764608,13.11419928,.00014753,87.8903,22.8670,64.9702,295.1579,0,U,61598,999,8344,-.10305015E-2,-.353E-5,0
ONEWEB-0691,2024-188F,2026-06-08T02:47:49.831008,13.11417775,.00022165,87.8915,22.7763,82.0805,278.0574,0,U,61599,999,8329,-.13293844E-2,-.458E-5,0
ONEWEB-0692,2024-188G,2026-06-08T08:46:43.866336,13.11419938,.0001533,87.8893,22.8411,110.4718,249.6575,0,U,61600,999,8331,.77101E-3,.286E-5,0
ONEWEB-0693,2024-188H,2026-06-06T08:04:29.969472,13.17649651,.00013896,87.9129,8.0549,66.5698,293.5579,0,U,61601,999,8445,.61298914E-4,.37E-6,0
ONEWEB-0695,2024-188J,2026-06-08T02:42:56.085696,13.11416745,.00018444,87.8898,22.8831,102.4202,257.7132,0,U,61602,999,8327,-.15465472E-2,-.535E-5,0
ONEWEB-0697,2024-188K,2026-06-08T08:58:56.776800,13.11418234,.0001383,87.8898,22.8215,107.9202,252.2077,0,U,61603,999,8329,.18939E-2,.684E-5,0
ONEWEB-0698,2024-188L,2026-06-08T02:57:34.793568,13.11419870,.00006334,87.8893,22.8858,86.9614,273.1586,0,U,61604,999,8328,-.6942955E-3,-.233E-5,0
ONEWEB-0699,2024-188M,2026-06-08T08:35:35.238336,13.10370078,.0001359,87.8836,38.0245,100.4292,259.6988,0,U,61605,999,8215,.82747E-3,.302E-5,0
ONEWEB-0700,2024-188N,2026-06-08T08:37:58.372032,13.10370612,.0001738,87.8854,37.9318,105.5262,254.6057,0,U,61606,999,8214,.75335E-3,.276E-5,0
